[{"OBJECT_NAME":"STARLINK-6245","OBJECT_ID":"2023-088AH","EPOCH":"2026-03-09T22:00:01.999584","MEAN_MOTION":15.11050888,"ECCENTRICITY":0.00020399,"INCLINATION":42.9997,"RA_OF_ASC_NODE":93.1432,"ARG_OF_PERICENTER":277.4364,"MEAN_ANOMALY":128.4537,"EPHEMERIS_TYPE":0,"CLASSIFICATION_TYPE":"U","NORAD_CAT_ID":57079,"ELEMENT_SET_NO":999,"REV_AT_EPOCH":572,"BSTAR":0.0036049084,"MEAN_MOTION_DOT":0.00061661,"MEAN_MOTION_DDOT":0},{"OBJECT_NAME":"CZ-11 R\/B","OBJECT_ID":"2018-008G","EPOCH":"2026-03-09T21:32:14.586720","MEAN_MOTION":14.3224485,"ECCENTRICITY":0.03634479,"INCLINATION":98.2374,"RA_OF_ASC_NODE":58.5812,"ARG_OF_PERICENTER":26.4919,"MEAN_ANOMALY":335.4347,"EPHEMERIS_TYPE":0,"CLASSIFICATION_TYPE":"U","NORAD_CAT_ID":43161,"ELEMENT_SET_NO":999,"REV_AT_EPOCH":42445,"BSTAR":0.00036976397,"MEAN_MOTION_DOT":2.03e-5,"MEAN_MOTION_DDOT":0}]
